{
  "norad_id": 66067,
  "name": "STARLINK-35401",
  "history": [
    {
      "epoch": "2026-03-28T21:55:55.564320",
      "apogee_km": 476.077724592551,
      "perigee_km": 474.25885736832424,
      "latitude_deg": 22.837805751200904,
      "longitude_deg": 154.4284048001282,
      "semi_major_axis_km": 6853.305290980437,
      "eccentricity": 0.0001327,
      "inclination_deg": 53.1601,
      "raan_deg": 156.0555,
      "arg_perigee_deg": 89.881,
      "mean_anomaly_deg": 270.2343,
      "mean_motion_rev_day": 15.30215667
    }
  ]
}